CTC1_L_00412016-03
1 10062U 24191AZ  26075.70034722  .00000000  00000+0  00000-0 0  9990
2 10062  55.0000 180.0000 0000000   0.0000   0.0000 12.77881384    10
CTC1_L_00412016-04
1 10063U 24500II  26075.70034722  .00000000  00000+0  00000-0 0  9995
2 10063  55.0000 180.0000 0000000   0.0000  90.0000 12.77881384    10
CTC1_L_00412017-01
1 10064U 22081IF  26075.70034722  .00000000  00000+0  00000-0 0  9998
2 10064  55.0000 192.0000 0000000   0.0000 192.0000 12.77881384    17
CTC1_L_00412017-02
1 10065U 24979BM  26075.70034722  .00000000  00000+0  00000-0 0  9997
2 10065  55.0000 192.0000 0000000   0.0000 282.0000 12.77881384    18
CTC1_L_00412017-03
1 10066U 24598WE  26075.70034722  .00000000  00000+0  00000-0 0  9995
2 10066  55.0000 192.0000 0000000   0.0000  12.0000 12.77881384    10
CTC1_L_00412017-04
1 10067U 25291HZ  26075.70034722  .00000000  00000+0  00000-0 0  9997
2 10067  55.0000 192.0000 0000000   0.0000 102.0000 12.77881384    11
CTC1_L_00412018-01
1 10068U 26963PJ  26075.70034722  .00000000  00000+0  00000-0 0  9995
2 10068  55.0000 204.0000 0000000   0.0000 204.0000 12.77881384    19
CTC1_L_00412018-02
1 10069U 25414BO  26075.70034722  .00000000  00000+0  00000-0 0  9996
2 10069  55.0000 204.0000 0000000   0.0000 294.0000 12.77881384    19
CTC1_L_00412018-03
1 10070U 25310NI  26075.70034722  .00000000  00000+0  00000-0 0  9993
2 10070  55.0000 204.0000 0000000   0.0000  24.0000 12.77881384    12
CTC1_L_00412018-04
1 10071U 26514XA  26075.70034722  .00000000  00000+0  00000-0 0  9991
2 10071  55.0000 204.0000 0000000   0.0000 114.0000 12.77881384    13
CTC1_L_00412019-01
1 10072U 23533TU  26075.70034722  .00000000  00000+0  00000-0 0  9990
2 10072  55.0000 216.0000 0000000   0.0000 216.0000 12.77881384    10
CTC1_L_00412019-02
1 10073U 22675TH  26075.70034722  .00000000  00000+0  00000-0 0  9997
2 10073  55.0000 216.0000 0000000   0.0000 306.0000 12.77881384    11
CTC1_L_00412019-03
1 10074U 25207A   26075.70034722  .00000000  00000+0  00000-0 0  9992
2 10074  55.0000 216.0000 0000000   0.0000  36.0000 12.77881384    12
CTC1_L_00412019-04
1 10075U 26490TF  26075.70034722  .00000000  00000+0  00000-0 0  9998
2 10075  55.0000 216.0000 0000000   0.0000 126.0000 12.77881384    13
CTC1_L_00412020-01
1 10076U 24290QI  26075.70034722  .00000000  00000+0  00000-0 0  9995
2 10076  55.0000 228.0000 0000000   0.0000 228.0000 12.77881384    10
CTC1_L_00412020-02
1 10077U 24182HF  26075.70034722  .00000000  00000+0  00000-0 0  9996
2 10077  55.0000 228.0000 0000000   0.0000 318.0000 12.77881384    11
CTC1_L_00412020-03
1 10078U 25068CX  26075.70034722  .00000000  00000+0  00000-0 0  9991
2 10078  55.0000 228.0000 0000000   0.0000  48.0000 12.77881384    12
CTC1_L_00412020-04
1 10079U 23421CU  26075.70034722  .00000000  00000+0  00000-0 0  9993
2 10079  55.0000 228.0000 0000000   0.0000 138.0000 12.77881384    13
CTC1_L_00412021-01
1 10080U 25368QG  26075.70034722  .00000000  00000+0  00000-0 0  9997
2 10080  55.0000 240.0000 0000000   0.0000 240.0000 12.77881384    13
CTC1_L_00412021-02
1 10081U 24281GP  26075.70034722  .00000000  00000+0  00000-0 0  9991
2 10081  55.0000 240.0000 0000000   0.0000 330.0000 12.77881384    14
CTC1_L_00412021-03
1 10082U 23818AT  26075.70034722  .00000000  00000+0  00000-0 0  9997
2 10082  55.0000 240.0000 0000000   0.0000  60.0000 12.77881384    15
CTC1_L_00412021-04
1 10083U 22149HN  26075.70034722  .00000000  00000+0  00000-0 0  9994
2 10083  55.0000 240.0000 0000000   0.0000 150.0000 12.77881384    16
CTC1_L_00412022-01
1 10084U 25223BE  26075.70034722  .00000000  00000+0  00000-0 0  9991
2 10084  55.0000 252.0000 0000000   0.0000 252.0000 12.77881384    13
CTC1_L_00412022-02
1 10085U 26535L   26075.70034722  .00000000  00000+0  00000-0 0  9999
2 10085  55.0000 252.0000 0000000   0.0000 342.0000 12.77881384    14
CTC1_L_00412022-03
1 10086U 22965ZG  26075.70034722  .00000000  00000+0  00000-0 0  9993
2 10086  55.0000 252.0000 0000000   0.0000  72.0000 12.77881384    15
CTC1_L_00412022-04
1 10087U 26240IZ  26075.70034722  .00000000  00000+0  00000-0 0  9994
2 10087  55.0000 252.0000 0000000   0.0000 162.0000 12.77881384    16
CTC1_L_00412023-01
1 10088U 25752IZ  26075.70034722  .00000000  00000+0  00000-0 0  9992
2 10088  55.0000 264.0000 0000000   0.0000 264.0000 12.77881384    13
CTC1_L_00412023-02
1 10089U 26441JO  26075.70034722  .00000000  00000+0  00000-0 0  9999
2 10089  55.0000 264.0000 0000000   0.0000 354.0000 12.77881384    14
CTC1_L_00412023-03
1 10090U 23674XL  26075.70034722  .00000000  00000+0  00000-0 0  9996
2 10090  55.0000 264.0000 0000000   0.0000  84.0000 12.77881384    16
CTC1_L_00412023-04
1 10091U 26590BP  26075.70034722  .00000000  00000+0  00000-0 0  9997
2 10091  55.0000 264.0000 0000000   0.0000 174.0000 12.77881384    17
CTC1_L_00412024-01
1 10092U 25748OO  26075.70034722  .00000000  00000+0  00000-0 0  9992
2 10092  55.0000 276.0000 0000000   0.0000 276.0000 12.77881384    14
CTC1_L_00412024-02
1 10093U 25152UK  26075.70034722  .00000000  00000+0  00000-0 0  9992
2 10093  55.0000 276.0000 0000000   0.0000   6.0000 12.77881384    16
CTC1_L_00412024-03
1 10094U 24765BB  26075.70034722  .00000000  00000+0  00000-0 0  9992
2 10094  55.0000 276.0000 0000000   0.0000  96.0000 12.77881384    16
CTC1_L_00412024-04
1 10095U 24189VW  26075.70034722  .00000000  00000+0  00000-0 0  9993
2 10095  55.0000 276.0000 0000000   0.0000 186.0000 12.77881384    17
CTC1_L_00412025-01
1 10096U 23400QU  26075.70034722  .00000000  00000+0  00000-0 0  9999
2 10096  55.0000 288.0000 0000000   0.0000 288.0000 12.77881384    14
CTC1_L_00412025-02
1 10097U 24472ZO  26075.70034722  .00000000  00000+0  00000-0 0  9990
2 10097  55.0000 288.0000 0000000   0.0000  18.0000 12.77881384    16
CTC1_L_00412025-03
1 10098U 23468OG  26075.70034722  .00000000  00000+0  00000-0 0  9995
2 10098  55.0000 288.0000 0000000   0.0000 108.0000 12.77881384    17
CTC1_L_00412025-04
1 10099U 26419LQ  26075.70034722  .00000000  00000+0  00000-0 0  9995
2 10099  55.0000 288.0000 0000000   0.0000 198.0000 12.77881384    17
CTC1_L_00412026-01
1 10100U 25336ER  26075.70034722  .00000000  00000+0  00000-0 0  9995
2 10100  55.0000 300.0000 0000000   0.0000 300.0000 12.77881384    10
CTC1_L_00412026-02
1 10101U 26229FQ  26075.70034722  .00000000  00000+0  00000-0 0  9998
2 10101  55.0000 300.0000 0000000   0.0000  30.0000 12.77881384    11
CTC1_L_00412026-03
1 10102U 24932BZ  26075.70034722  .00000000  00000+0  00000-0 0  9998
2 10102  55.0000 300.0000 0000000   0.0000 120.0000 12.77881384    12
CTC1_L_00412026-04
1 10103U 26153SM  26075.70034722  .00000000  00000+0  00000-0 0  9996
2 10103  55.0000 300.0000 0000000   0.0000 210.0000 12.77881384    13
CTC1_L_00412027-01
1 10104U 23488EU  26075.70034722  .00000000  00000+0  00000-0 0  9995
2 10104  55.0000 312.0000 0000000   0.0000 312.0000 12.77881384    10
CTC1_L_00412027-02
1 10105U 24449HW  26075.70034722  .00000000  00000+0  00000-0 0  9994
2 10105  55.0000 312.0000 0000000   0.0000  42.0000 12.77881384    11
CTC1_L_00412027-03
1 10106U 26193TI  26075.70034722  .00000000  00000+0  00000-0 0  9993
2 10106  55.0000 312.0000 0000000   0.0000 132.0000 12.77881384    12
CTC1_L_00412027-04
1 10107U 23384FA  26075.70034722  .00000000  00000+0  00000-0 0  9993
2 10107  55.0000 312.0000 0000000   0.0000 222.0000 12.77881384    13
CTC1_L_00412028-01
1 10108U 23881NL  26075.70034722  .00000000  00000+0  00000-0 0  9996
2 10108  55.0000 324.0000 0000000   0.0000 324.0000 12.77881384    10
CTC1_L_00412028-02
1 10109U 24168SG  26075.70034722  .00000000  00000+0  00000-0 0  9996
2 10109  55.0000 324.0000 0000000   0.0000  54.0000 12.77881384    11
CTC1_L_00412028-03
1 10110U 22701DV  26075.70034722  .00000000  00000+0  00000-0 0  9999
2 10110  55.0000 324.0000 0000000   0.0000 144.0000 12.77881384    13
CTC1_L_00412028-04
1 10111U 26596HP  26075.70034722  .00000000  00000+0  00000-0 0  9996
2 10111  55.0000 324.0000 0000000   0.0000 234.0000 12.77881384    14
CTC1_L_00412029-01
1 10112U 24641DK  26075.70034722  .00000000  00000+0  00000-0 0  9996
2 10112  55.0000 336.0000 0000000   0.0000 336.0000 12.77881384    11
CTC1_L_00412029-02
1 10113U 23534PG  26075.70034722  .00000000  00000+0  00000-0 0  9997
2 10113  55.0000 336.0000 0000000   0.0000  66.0000 12.77881384    12
CTC1_L_00412029-03
1 10114U 25120UK  26075.70034722  .00000000  00000+0  00000-0 0  9991
2 10114  55.0000 336.0000 0000000   0.0000 156.0000 12.77881384    13
CTC1_L_00412029-04
1 10115U 23465BM  26075.70034722  .00000000  00000+0  00000-0 0  9992
2 10115  55.0000 336.0000 0000000   0.0000 246.0000 12.77881384    14
CTC1_L_00412030-01
1 10116U 26593MJ  26075.70034722  .00000000  00000+0  00000-0 0  9998
2 10116  55.0000 348.0000 0000000   0.0000 348.0000 12.77881384    11
CTC1_L_00412030-02
1 10117U 23660YT  26075.70034722  .00000000  00000+0  00000-0 0  9991
2 10117  55.0000 348.0000 0000000   0.0000  78.0000 12.77881384    12
CTC1_L_00412030-03
1 10118U 25619HJ  26075.70034722  .00000000  00000+0  00000-0 0  9998
2 10118  55.0000 348.0000 0000000   0.0000 168.0000 12.77881384    13
CTC1_L_00412030-04
1 10119U 24565KZ  26075.70034722  .00000000  00000+0  00000-0 0  9998
2 10119  55.0000 348.0000 0000000   0.0000 258.0000 12.77881384    14
